*******************************************************************************
Ephemeris / WWW_USER Tue Mar 27 20:39:33 2018 Pasadena, USA      / Horizons    
*******************************************************************************
Target body name: Jupiter Barycenter (5)          {source: DE431mx}
Center body name: Solar System Barycenter (0)     {source: DE431mx}
Center-site name: BODY CENTER
*******************************************************************************
Start time      : A.D. 2000-Jan-01 00:00:00.0000 TDB
Stop  time      : A.D. 2001-Jan-01 00:00:00.0000 TDB
Step-size       : 7200 minutes
*******************************************************************************
Center geodetic : 0.00000000,0.00000000,0.0000000 {E-lon(deg),Lat(deg),Alt(km)}
Center cylindric: 0.00000000,0.00000000,0.0000000 {E-lon(deg),Dxy(km),Dz(km)}
Center radii    : (undefined)                                                  
Output units    : AU-D                                                         
Output type     : GEOMETRIC cartesian states
Output format   : 2 (position and velocity)
Reference frame : ICRF/J2000.0                                                 
Coordinate systm: Ecliptic and Mean Equinox of Reference Epoch                 
*******************************************************************************
JDTDB
   X     Y     Z
   VX    VY    VZ
*******************************************************************************
$$SOE
2451754.500000000 = A.D. 2000-Jul-29 00:00:00.0000 TDB 
   2.845832225579267E+00  4.107173491560284E+00 -8.073070435897518E-02
  -6.295592204720605E-03  4.655813603586368E-03  1.216209621828377E-04
2451759.500000000 = A.D. 2000-Aug-03 00:00:00.0000 TDB 
   2.814270459738085E+00  4.130331049751144E+00 -8.012022171782740E-02
  -6.329047999604922E-03  4.607169824974721E-03  1.225707791411540E-04
2451764.500000000 = A.D. 2000-Aug-08 00:00:00.0000 TDB 
   2.782542408266573E+00  4.153244794295589E+00 -7.950500976147386E-02
  -6.362106185694078E-03  4.558288738017942E-03  1.235126797792836E-04
2451769.500000000 = A.D. 2000-Aug-13 00:00:00.0000 TDB 
   2.750650063245650E+00  4.175913547554777E+00 -7.888510819816177E-02
  -6.394765154298329E-03  4.509173905436099E-03  1.244466135670056E-04
2451774.500000000 = A.D. 2000-Aug-18 00:00:00.0000 TDB 
   2.718595424708304E+00  4.198336149726502E+00 -7.826055698685555E-02
  -6.427023333295164E-03  4.459828899074480E-03  1.253725307497890E-04
2451779.500000000 = A.D. 2000-Aug-23 00:00:00.0000 TDB 
   2.686380500456559E+00  4.220511458889624E+00 -7.763139633333156E-02
  -6.458879187196771E-03  4.410257299450637E-03  1.262903823581134E-04
2451784.500000000 = A.D. 2000-Aug-28 00:00:00.0000 TDB 
   2.654007305878292E+00  4.242438351046478E+00 -7.699766668624462E-02
  -6.490331217145049E-03  4.360462695372348E-03  1.272001202105736E-04
2451789.500000000 = A.D. 2000-Sep-02 00:00:00.0000 TDB 
   2.621477863764162E+00  4.264115720163330E+00 -7.635940873318608E-02
  -6.521377960879348E-03  4.310448683532300E-03  1.281016969131148E-04
2451794.500000000 = A.D. 2000-Sep-07 00:00:00.0000 TDB 
   2.588794204124744E+00  4.285542478208720E+00 -7.571666339675773E-02
  -6.552017992685140E-03  4.260218868076282E-03  1.289950658552076E-04
2451799.500000000 = A.D. 2000-Sep-12 00:00:00.0000 TDB 
   2.555958364007858E+00  4.306717555189609E+00 -7.506947183065607E-02
  -6.582249923378811E-03  4.209776860148707E-03  1.298801812099159E-04
2451804.500000000 = A.D. 2000-Sep-17 00:00:00.0000 TDB 
   2.522972387315970E+00  4.327639899185247E+00 -7.441787541575312E-02
  -6.612072400280106E-03  4.159126277448535E-03  1.307569979338869E-04
2451809.500000000 = A.D. 2000-Sep-22 00:00:00.0000 TDB 
   2.489838324623733E+00  4.348308476378845E+00 -7.376191575617688E-02
  -6.641484107190512E-03  4.108270743788063E-03  1.316254717682588E-04
2451814.500000000 = A.D. 2000-Sep-27 00:00:00.0000 TDB 
   2.456558232995651E+00  4.368722271087057E+00 -7.310163467538584E-02
  -6.670483764362931E-03  4.057213888659766E-03  1.324855592395992E-04
2451819.500000000 = A.D. 2000-Oct-02 00:00:00.0000 TDB 
   2.423134175803908E+00  4.388880285787302E+00 -7.243707421224146E-02
  -6.699070128464981E-03  4.005959346808010E-03  1.333372176608456E-04
2451824.500000000 = A.D. 2000-Oct-07 00:00:00.0000 TDB 
   2.389568222546405E+00  4.408781541142973E+00 -7.176827661707119E-02
  -6.727241992535550E-03  3.954510757805342E-03  1.341804051322590E-04
2451829.500000000 = A.D. 2000-Oct-12 00:00:00.0000 TDB 
   2.355862448665020E+00  4.428425076026520E+00 -7.109528434773180E-02
  -6.754998185935280E-03  3.902871765633214E-03  1.350150805423824E-04
2451834.500000000 = A.D. 2000-Oct-17 00:00:00.0000 TDB 
   2.322018935364139E+00  4.447809947540455E+00 -7.041814006566272E-02
  -6.782337574290188E-03  3.851046018270022E-03  1.358412035696052E-04
2451839.500000000 = A.D. 2000-Oct-22 00:00:00.0000 TDB 
   2.288039769429485E+00  4.466935231036336E+00 -6.973688663193535E-02
  -6.809259059429568E-03  3.799037167283352E-03  1.366587346833903E-04
2451844.500000000 = A.D. 2000-Oct-27 00:00:00.0000 TDB 
   2.253927043047274E+00  4.485800020131711E+00 -6.905156710329186E-02
  -6.835761579311552E-03  3.746848867443638E-03  1.374676351457348E-04
2451849.500000000 = A.D. 2000-Nov-01 00:00:00.0000 TDB 
   2.219682853623820E+00  4.504403426725219E+00 -6.836222472818596E-02
  -6.861844107920017E-03  3.694484776352740E-03  1.382678670095258E-04
2451854.500000000 = A.D. 2000-Nov-06 00:00:00.0000 TDB 
   2.185309303605710E+00  4.522744581009763E+00 -6.766890294283824E-02
  -6.887505655138806E-03  3.641948554044002E-03  1.390593931143000E-04
2451859.500000000 = A.D. 2000-Nov-11 00:00:00.0000 TDB 
   2.150808500300651E+00  4.540822631483588E+00 -6.697164536731680E-02
  -6.912745266618325E-03  3.589243862540737E-03  1.398421770813424E-04
2451864.500000000 = A.D. 2000-Nov-16 00:00:00.0000 TDB 
   2.116182555698794E+00  4.558636744958974E+00 -6.627049580161756E-02
  -6.937562023726129E-03  3.536374365355057E-03  1.406161833194185E-04
2451869.500000000 = A.D. 2000-Nov-21 00:00:00.0000 TDB 
   2.081433586294259E+00  4.576186106568628E+00 -6.556549822170843E-02
  -6.961955043497864E-03  3.483343727087029E-03  1.413813770327173E-04
2451874.500000000 = A.D. 2000-Nov-26 00:00:00.0000 TDB 
   2.046563712906991E+00  4.593469919770255E+00 -6.485669677553978E-02
  -6.985923478545569E-03  3.430155613077849E-03  1.421377242231076E-04
2451879.500000000 = A.D. 2000-Dec-01 00:00:00.0000 TDB 
   2.011575060505213E+00  4.610487406349366E+00 -6.414413577906526E-02
  -7.009466516924397E-03  3.376813689044366E-03  1.428851916871715E-04
2451884.500000000 = A.D. 2000-Dec-06 00:00:00.0000 TDB 
   1.976469758028533E+00  4.627237806420197E+00 -6.342785971227395E-02
  -7.032583382004944E-03  3.323321620696464E-03  1.436237470138185E-04
2451889.500000000 = A.D. 2000-Dec-11 00:00:00.0000 TDB 
   1.941249938211667E+00  4.643720378424695E+00 -6.270791321523331E-02
  -7.055273332352919E-03  3.269683073341547E-03  1.443533585825427E-04
2451894.500000000 = A.D. 2000-Dec-16 00:00:00.0000 TDB 
   1.905917737408763E+00  4.659934399129538E+00 -6.198434108414074E-02
  -7.077535661610223E-03  3.215901711503538E-03  1.450739955618639E-04
2451899.500000000 = A.D. 2000-Dec-21 00:00:00.0000 TDB 
   1.870475295418332E+00  4.675879163621285E+00 -6.125718826738070E-02
  -7.099369698367773E-03  3.161981198547320E-03  1.457856279077812E-04
2451904.500000000 = A.D. 2000-Dec-26 00:00:00.0000 TDB 
   1.834924755308837E+00  4.691553985299648E+00 -6.052649986159377E-02
  -7.120774806030194E-03  3.107925196309579E-03  1.464882263611950E-04
2451909.500000000 = A.D. 2000-Dec-31 00:00:00.0000 TDB 
   1.799268263244992E+00  4.706958195868936E+00 -5.979232110776202E-02
  -7.141750382665789E-03  3.053737364729536E-03  1.471817624443625E-04
